[{"OBJECT_NAME":"KUIPER-00173","OBJECT_ID":"2025-217AA","EPOCH":"2026-03-09T22:00:01.999584","MEAN_MOTION":14.7640598,"ECCENTRICITY":9.222e-5,"INCLINATION":51.9019,"RA_OF_ASC_NODE":31.4046,"ARG_OF_PERICENTER":130.9471,"MEAN_ANOMALY":336.5059,"EPHEMERIS_TYPE":0,"CLASSIFICATION_TYPE":"U","NORAD_CAT_ID":65786,"ELEMENT_SET_NO":999,"REV_AT_EPOCH":568,"BSTAR":0.00099113662,"MEAN_MOTION_DOT":6.744e-5,"MEAN_MOTION_DDOT":0},{"OBJECT_NAME":"CZ-6A DEB","OBJECT_ID":"2022-151AF","EPOCH":"2026-03-09T17:45:11.026080","MEAN_MOTION":14.62876284,"ECCENTRICITY":0.01343128,"INCLINATION":98.6651,"RA_OF_ASC_NODE":151.4205,"ARG_OF_PERICENTER":173.7832,"MEAN_ANOMALY":186.5075,"EPHEMERIS_TYPE":0,"CLASSIFICATION_TYPE":"U","NORAD_CAT_ID":54288,"ELEMENT_SET_NO":999,"REV_AT_EPOCH":17604,"BSTAR":0.00098688827,"MEAN_MOTION_DOT":5.69e-5,"MEAN_MOTION_DDOT":0}]
